start=new Date('2023-05-19T00:00:00.000Z').valueOf();
sats=[{"BSTAR":"0.00103140000000","REF_FRAME":"TEME","CENTER_NAME":"EARTH","MEAN_MOTION_DDOT":"0.0000000000000","CLASSIFICATION_TYPE":"U","DECAY_DATE":null,"PERIAPSIS":"546.486","ECCENTRICITY":"0.00009910","COUNTRY_CODE":"US","EPOCH":"2023-05-18T17:42:07.899552","NORAD_CAT_ID":"48602","MEAN_MOTION":"15.06413503","FILE":"3911388","LAUNCH_DATE":"2021-05-15","ARG_OF_PERICENTER":"71.6189","APOAPSIS":"547.858","EPHEMERIS_TYPE":"0","SITE":"AFETR","RA_OF_ASC_NODE":"42.2927","PERIOD":"95.591","GP_ID":"232112792","MEAN_ELEMENT_THEORY":"SGP4","TLE_LINE1":"1 48602U 21041BB  23138.73759143  .00015120  00000-0  10314-2 0  9994","TLE_LINE2":"2 48602  53.0549  42.2927 0000991  71.6189 288.4908 15.06413503112039","RCS_SIZE":"LARGE","OBJECT_NAME":"STARLINK-2713","SEMIMAJOR_AXIS":"6925.307","OBJECT_TYPE":"PAYLOAD","TIME_SYSTEM":"UTC","INCLINATION":"53.0549","ELEMENT_SET_NO":"999","REV_AT_EPOCH":"11203","MEAN_ANOMALY":"288.4908","OBJECT_ID":"2021-041BB","MEAN_MOTION_DOT":"0.00015120"},{"TLE_LINE1":"1 48603U 21041BC  23138.51779987  .00014190  00000-0  96948-3 0  9993","TLE_LINE2":"2 48603  53.0550  38.2849 0001308  64.8129 295.2995 15.06403433112089","MEAN_ELEMENT_THEORY":"SGP4","GP_ID":"232083816","PERIOD":"95.592","RA_OF_ASC_NODE":"38.2849","SITE":"AFETR","EPHEMERIS_TYPE":"0","APOAPSIS":"548.109","ARG_OF_PERICENTER":"64.8129","LAUNCH_DATE":"2021-05-15","FILE":"3911221","MEAN_MOTION":"15.06403433","NORAD_CAT_ID":"48603","EPOCH":"2023-05-18T12:25:37.908768","ECCENTRICITY":"0.00013080","COUNTRY_CODE":"US","PERIAPSIS":"546.297","DECAY_DATE":null,"MEAN_MOTION_DDOT":"0.0000000000000","CLASSIFICATION_TYPE":"U","CENTER_NAME":"EARTH","REF_FRAME":"TEME","BSTAR":"0.00096948000000","MEAN_MOTION_DOT":"0.00014190","MEAN_ANOMALY":"295.2995","OBJECT_ID":"2021-041BC","REV_AT_EPOCH":"11208","ELEMENT_SET_NO":"999","INCLINATION":"53.0550","TIME_SYSTEM":"UTC","OBJECT_TYPE":"PAYLOAD","SEMIMAJOR_AXIS":"6925.338","OBJECT_NAME":"STARLINK-2714","RCS_SIZE":"LARGE"},{"REV_AT_EPOCH":"11170","MEAN_MOTION_DOT":"0.00008513","OBJECT_ID":"2021-041BD","MEAN_ANOMALY":"254.5101","RCS_SIZE":"LARGE","OBJECT_TYPE":"PAYLOAD","SEMIMAJOR_AXIS":"6925.351","OBJECT_NAME":"STARLINK-2757","ELEMENT_SET_NO":"999","INCLINATION":"53.0548","TIME_SYSTEM":"UTC","LAUNCH_DATE":"2021-05-15","APOAPSIS":"547.823","ARG_OF_PERICENTER":"105.5985","PERIOD":"95.592","RA_OF_ASC_NODE":"67.0786","SITE":"AFETR","EPHEMERIS_TYPE":"0","TLE_LINE2":"2 48604  53.0548  67.0786 0000876 105.5985 254.5101 15.06399120111701","TLE_LINE1":"1 48604U 21041BD  23138.78504002  .00008513  00000-0  58973-3 0  9995","MEAN_ELEMENT_THEORY":"SGP4","GP_ID":"232114294","MEAN_MOTION_DDOT":"0.0000000000000","CLASSIFICATION_TYPE":"U","CENTER_NAME":"EARTH","REF_FRAME":"TEME","BSTAR":"0.00058973000000","PERIAPSIS":"546.610","DECAY_DATE":null,"COUNTRY_CODE":"US","ECCENTRICITY":"0.00008760","FILE":"3911388","MEAN_MOTION":"15.06399120","NORAD_CAT_ID":"48604","EPOCH":"2023-05-18T18:50:27.457728"},{"ARG_OF_PERICENTER":"96.2997","APOAPSIS":"547.959","LAUNCH_DATE":"2021-05-26","TLE_LINE1":"1 48638U 21044A   23138.00683075  .00016896  00000-0  11503-2 0  9998","TLE_LINE2":"2 48638  53.0557  45.5727 0001095  96.2997 263.8117 15.06404312109030","GP_ID":"232084069","MEAN_ELEMENT_THEORY":"SGP4","RA_OF_ASC_NODE":"45.5727","PERIOD":"95.592","EPHEMERIS_TYPE":"0","SITE":"AFETR","DECAY_DATE":null,"PERIAPSIS":"546.442","CLASSIFICATION_TYPE":"U","MEAN_MOTION_DDOT":"0.0000000000000","BSTAR":"0.00115030000000","REF_FRAME":"TEME","CENTER_NAME":"EARTH","MEAN_MOTION":"15.06404312","FILE":"3911221","EPOCH":"2023-05-18T00:09:50.176800","NORAD_CAT_ID":"48638","ECCENTRICITY":"0.00010950","COUNTRY_CODE":"US","REV_AT_EPOCH":"10903","MEAN_MOTION_DOT":"0.00016896","MEAN_ANOMALY":"263.8117","OBJECT_ID":"2021-044A","SEMIMAJOR_AXIS":"6925.335","OBJECT_TYPE":"PAYLOAD","OBJECT_NAME":"STARLINK-2758","RCS_SIZE":"LARGE","INCLINATION":"53.0557","ELEMENT_SET_NO":"999","TIME_SYSTEM":"UTC"},{"COUNTRY_CODE":"US","ECCENTRICITY":"0.00010160","EPOCH":"2023-05-18T12:32:54.809376","NORAD_CAT_ID":"48639","MEAN_MOTION":"15.06406089","FILE":"3911298","BSTAR":"0.00061433000000","REF_FRAME":"TEME","CENTER_NAME":"EARTH","MEAN_MOTION_DDOT":"0.0000000000000","CLASSIFICATION_TYPE":"U","DECAY_DATE":null,"PERIAPSIS":"546.491","EPHEMERIS_TYPE":"0","SITE":"AFETR","RA_OF_ASC_NODE":"43.2578","PERIOD":"95.592","GP_ID":"232090406","MEAN_ELEMENT_THEORY":"SGP4","TLE_LINE2":"2 48639  53.0544  43.2578 0001016  82.4127 277.6978 15.06406089110012","TLE_LINE1":"1 48639U 21044B   23138.52285659  .00008882  00000-0  61433-3 0  9996","LAUNCH_DATE":"2021-05-26","ARG_OF_PERICENTER":"82.4127","APOAPSIS":"547.899","TIME_SYSTEM":"UTC","INCLINATION":"53.0544","ELEMENT_SET_NO":"999","RCS_SIZE":"LARGE","OBJECT_NAME":"STARLINK-2739","SEMIMAJOR_AXIS":"6925.330","OBJECT_TYPE":"PAYLOAD","OBJECT_ID":"2021-044B","MEAN_ANOMALY":"277.6978","MEAN_MOTION_DOT":"0.00008882","REV_AT_EPOCH":"11001"},{"RCS_SIZE":"LARGE","OBJECT_NAME":"STARLINK-2736","OBJECT_TYPE":"PAYLOAD","SEMIMAJOR_AXIS":"6925.365","TIME_SYSTEM":"UTC","ELEMENT_SET_NO":"999","INCLINATION":"53.0542","REV_AT_EPOCH":"10910","OBJECT_ID":"2021-044C","MEAN_ANOMALY":"262.6965","MEAN_MOTION_DOT":"0.00008468","CENTER_NAME":"EARTH","REF_FRAME":"TEME","BSTAR":"0.00058677000000","CLASSIFICATION_TYPE":"U","MEAN_MOTION_DDOT":"0.0000000000000","PERIAPSIS":"546.366","DECAY_DATE":null,"COUNTRY_CODE":"US","ECCENTRICITY":"0.00012470","NORAD_CAT_ID":"48640","EPOCH":"2023-05-18T12:23:42.969120","FILE":"3911221","MEAN_MOTION":"15.06394663","LAUNCH_DATE":"2021-05-26","APOAPSIS":"548.094","ARG_OF_PERICENTER":"97.4166","SITE":"AFETR","EPHEMERIS_TYPE":"0","PERIOD":"95.592","RA_OF_ASC_NODE":"43.5644","MEAN_ELEMENT_THEORY":"SGP4","GP_ID":"232082567","TLE_LINE2":"2 48640  53.0542  43.5644 0001247  97.4166 262.6965 15.06394663109106","TLE_LINE1":"1 48640U 21044C   23138.51646955  .00008468  00000-0  58677-3 0  9993"},{"MEAN_ANOMALY":"279.9918","OBJECT_ID":"2021-044D","MEAN_MOTION_DOT":"0.00006922","REV_AT_EPOCH":"10907","TIME_SYSTEM":"UTC","ELEMENT_SET_NO":"999","INCLINATION":"53.0539","RCS_SIZE":"LARGE","OBJECT_NAME":"STARLINK-2754","OBJECT_TYPE":"PAYLOAD","SEMIMAJOR_AXIS":"6925.320","SITE":"AFETR","EPHEMERIS_TYPE":"0","PERIOD":"95.592","RA_OF_ASC_NODE":"47.3379","MEAN_ELEMENT_THEORY":"SGP4","GP_ID":"232114047","TLE_LINE2":"2 48641  53.0539  47.3379 0001447  80.1234 279.9918 15.06409374109078","TLE_LINE1":"1 48641U 21044D   23138.72791211  .00006922  00000-0  48301-3 0  9999","LAUNCH_DATE":"2021-05-26","APOAPSIS":"548.187","ARG_OF_PERICENTER":"80.1234","COUNTRY_CODE":"US","ECCENTRICITY":"0.00014470","NORAD_CAT_ID":"48641","EPOCH":"2023-05-18T17:28:11.606304","FILE":"3911388","MEAN_MOTION":"15.06409374","CENTER_NAME":"EARTH","BSTAR":"0.00048301000000","REF_FRAME":"TEME","CLASSIFICATION_TYPE":"U","MEAN_MOTION_DDOT":"0.0000000000000","PERIAPSIS":"546.183","DECAY_DATE":null},{"OBJECT_NAME":"STARLINK-2646","OBJECT_TYPE":"PAYLOAD","SEMIMAJOR_AXIS":"6925.335","RCS_SIZE":"LARGE","TIME_SYSTEM":"UTC","ELEMENT_SET_NO":"999","INCLINATION":"53.0551","REV_AT_EPOCH":"10907","OBJECT_ID":"2021-044E","MEAN_ANOMALY":"254.5589","MEAN_MOTION_DOT":"0.00018998","PERIAPSIS":"546.424","DECAY_DATE":null,"CENTER_NAME":"EARTH","BSTAR":"0.00129070000000","REF_FRAME":"TEME","CLASSIFICATION_TYPE":"U","MEAN_MOTION_DDOT":"0.0000000000000","NORAD_CAT_ID":"48642","EPOCH":"2023-05-18T17:48:03.896064","FILE":"3911388","MEAN_MOTION":"15.06404447","COUNTRY_CODE":"US","ECCENTRICITY":"0.00011210","APOAPSIS":"547.976","ARG_OF_PERICENTER":"105.5524","LAUNCH_DATE":"2021-05-26","MEAN_ELEMENT_THEORY":"SGP4","GP_ID":"232113296","TLE_LINE2":"2 48642  53.0551  47.2779 0001121 105.5524 254.5589 15.06404447109078","TLE_LINE1":"1 48642U 21044E   23138.74171176  .00018998  00000-0  12907-2 0  9992","SITE":"AFETR","EPHEMERIS_TYPE":"0","PERIOD":"95.592","RA_OF_ASC_NODE":"47.2779"},{"TLE_LINE1":"1 48643U 21044F   23138.52423992  .00014360  00000-0  98075-3 0  9995","TLE_LINE2":"2 48643  53.0556  48.2456 0001252 104.2792 255.8336 15.06408346109048","GP_ID":"232084320","MEAN_ELEMENT_THEORY":"SGP4","RA_OF_ASC_NODE":"48.2456","PERIOD":"95.592","EPHEMERIS_TYPE":"0","SITE":"AFETR","ARG_OF_PERICENTER":"104.2792","APOAPSIS":"548.055","LAUNCH_DATE":"2021-05-26","MEAN_MOTION":"15.06408346","FILE":"3911221","EPOCH":"2023-05-18T12:34:54.329088","NORAD_CAT_ID":"48643","COUNTRY_CODE":"US","ECCENTRICITY":"0.00012520","DECAY_DATE":null,"PERIAPSIS":"546.321","CLASSIFICATION_TYPE":"U","MEAN_MOTION_DDOT":"0.0000000000000","REF_FRAME":"TEME","BSTAR":"0.00098075000000","CENTER_NAME":"EARTH","MEAN_MOTION_DOT":"0.00014360","MEAN_ANOMALY":"255.8336","OBJECT_ID":"2021-044F","REV_AT_EPOCH":"10904","INCLINATION":"53.0556","ELEMENT_SET_NO":"999","TIME_SYSTEM":"UTC","SEMIMAJOR_AXIS":"6925.323","OBJECT_TYPE":"PAYLOAD","OBJECT_NAME":"STARLINK-2704","RCS_SIZE":"LARGE"},{"TIME_SYSTEM":"UTC","ELEMENT_SET_NO":"999","INCLINATION":"53.0555","RCS_SIZE":"LARGE","OBJECT_NAME":"STARLINK-2695","OBJECT_TYPE":"PAYLOAD","SEMIMAJOR_AXIS":"6925.328","OBJECT_ID":"2021-044G","MEAN_ANOMALY":"257.1529","MEAN_MOTION_DOT":"0.00009205","REV_AT_EPOCH":"10904","ECCENTRICITY":"0.00011830","COUNTRY_CODE":"US","NORAD_CAT_ID":"48644","EPOCH":"2023-05-18T12:30:57.710592","FILE":"3911221","MEAN_MOTION":"15.06406742","CENTER_NAME":"EARTH","REF_FRAME":"TEME","BSTAR":"0.00063593000000","MEAN_MOTION_DDOT":"0.0000000000000","CLASSIFICATION_TYPE":"U","PERIAPSIS":"546.374","DECAY_DATE":null,"SITE":"AFETR","EPHEMERIS_TYPE":"0","PERIOD":"95.592","RA_OF_ASC_NODE":"48.2616","MEAN_ELEMENT_THEORY":"SGP4","GP_ID":"232083068","TLE_LINE1":"1 48644U 21044G   23138.52150128  .00009205  00000-0  63593-3 0  9993","TLE_LINE2":"2 48644  53.0555  48.2616 0001183 102.9592 257.1529 15.06406742109049","LAUNCH_DATE":"2021-05-26","APOAPSIS":"548.012","ARG_OF_PERICENTER":"102.9592"}];
